[{"OBJECT_NAME":"ION SCV-008","OBJECT_ID":"2023-001AU","EPOCH":"2026-03-09T19:46:58.662912","MEAN_MOTION":15.2722664,"ECCENTRICITY":0.00151921,"INCLINATION":97.5676,"RA_OF_ASC_NODE":163.606,"ARG_OF_PERICENTER":8.542,"MEAN_ANOMALY":351.6074,"EPHEMERIS_TYPE":0,"CLASSIFICATION_TYPE":"U","NORAD_CAT_ID":55051,"ELEMENT_SET_NO":999,"REV_AT_EPOCH":17616,"BSTAR":0.00031422806,"MEAN_MOTION_DOT":8.336e-5,"MEAN_MOTION_DDOT":0},{"OBJECT_NAME":"STARLINK-35092","OBJECT_ID":"2025-189V","EPOCH":"2026-03-09T14:01:14.890368","MEAN_MOTION":15.30215946,"ECCENTRICITY":9.49e-5,"INCLINATION":53.1604,"RA_OF_ASC_NODE":207.0206,"ARG_OF_PERICENTER":87.1219,"MEAN_ANOMALY":272.989,"EPHEMERIS_TYPE":0,"CLASSIFICATION_TYPE":"U","NORAD_CAT_ID":65342,"ELEMENT_SET_NO":999,"REV_AT_EPOCH":3100,"BSTAR":0.0012608,"MEAN_MOTION_DOT":0.00037187,"MEAN_MOTION_DDOT":0}]
