ION SCV-008             
1 55051U 23001AU  26068.82429008  .00008336  00000+0  31423-3 0  9992
2 55051  97.5676 163.6060 0015192   8.5420 351.6074 15.27226640176169
STARLINK-35092          
1 65342U 25189V   26068.58420012  .00037187  00000+0  12608-2 0  9993
2 65342  53.1604 207.0206 0000949  87.1219 272.9890 15.30215946 31005
